0 CZ-4 DEB
1 29213U 99057NL  13282.11647605  .00011339  00000-0  12529-2 0  2174
2 29213 098.6679 042.2162 0058022 016.5933 343.7162 14.86368923482555
0 CZ-4 DEB
1 29213U 99057NL  13286.15545401  .00008711  00000-0  96324-3 0  2191
2 29213 098.6676 046.6175 0057787 003.6445 356.5178 14.86438927483154
0 CZ-4 DEB
1 29213U 99057NL  13288.57875016  .00011782  00000-0  12983-2 0  2209
2 29213 098.6687 049.2590 0057749 355.6434 004.4268 14.86483659483513
0 CZ-4 DEB
1 29213U 99057NL  13290.59810029  .00014268  00000-0  15686-2 0  2213
2 29213 098.6693 051.4596 0057637 349.1242 010.8721 14.86524997483811
0 CZ-4 DEB
1 29213U 99057NL  13292.14623075  .00011255  00000-0  12386-2 0  2227
2 29213 098.6699 053.1474 0057561 344.1778 015.7635 14.86556247484043
0 CZ-4 DEB
1 29213U 99057NL  13294.16548379  .00012335  00000-0  13552-2 0  2231
2 29213 098.6698 055.3489 0057565 337.6049 022.2651 14.86596061484346
